start=new Date('2023-01-31T00:00:00.000Z').valueOf();
sats=[{"TLE_LINE2":"2 46055  53.0589 168.5662 0001174  97.1772 262.9351 15.06394274138070","PERIOD":"95.593","ECCENTRICITY":"0.00011740","CLASSIFICATION_TYPE":"U","REF_FRAME":"TEME","OBJECT_ID":"2020-055AE","EPOCH":"2023-01-30T09:57:52.832448","DECAY_DATE":null,"COUNTRY_CODE":"US","MEAN_MOTION_DDOT":"0.0000000000000","MEAN_ELEMENT_THEORY":"SGP4","OBJECT_NAME":"STARLINK-1554","BSTAR":"0.00000796050000","MEAN_MOTION_DOT":"-0.00000163","MEAN_MOTION":"15.06394274","GP_ID":"223993019","REV_AT_EPOCH":"13807","ARG_OF_PERICENTER":"97.1772","FILE":"3765576","EPHEMERIS_TYPE":"0","RCS_SIZE":"LARGE","RA_OF_ASC_NODE":"168.5662","TIME_SYSTEM":"UTC","APOAPSIS":"548.044","NORAD_CAT_ID":"46055","TLE_LINE1":"1 46055U 20055AE  23030.41519482 -.00000163  00000-0  79605-5 0  9997","OBJECT_TYPE":"PAYLOAD","SITE":"AFETR","ELEMENT_SET_NO":"999","SEMIMAJOR_AXIS":"6925.366","MEAN_ANOMALY":"262.9351","PERIAPSIS":"546.418","LAUNCH_DATE":"2020-08-07","CENTER_NAME":"EARTH","INCLINATION":"53.0589"},{"INCLINATION":"53.0534","PERIAPSIS":"546.430","LAUNCH_DATE":"2020-08-07","CENTER_NAME":"EARTH","MEAN_ANOMALY":"274.0761","SEMIMAJOR_AXIS":"6925.337","SITE":"AFETR","OBJECT_TYPE":"PAYLOAD","ELEMENT_SET_NO":"999","NORAD_CAT_ID":"46056","APOAPSIS":"547.974","RCS_SIZE":"LARGE","TIME_SYSTEM":"UTC","RA_OF_ASC_NODE":"167.2896","TLE_LINE1":"1 46056U 20055AF  23030.70174742  .00000336  00000-0  41440-4 0  9992","ARG_OF_PERICENTER":"86.0356","GP_ID":"224051216","REV_AT_EPOCH":"13812","MEAN_MOTION":"15.06403794","FILE":"3765849","EPHEMERIS_TYPE":"0","MEAN_MOTION_DOT":"0.00000336","BSTAR":"0.00004144000000","OBJECT_NAME":"STARLINK-1561","MEAN_MOTION_DDOT":"0.0000000000000","MEAN_ELEMENT_THEORY":"SGP4","COUNTRY_CODE":"US","OBJECT_ID":"2020-055AF","EPOCH":"2023-01-30T16:50:30.977088","REF_FRAME":"TEME","DECAY_DATE":null,"ECCENTRICITY":"0.00011150","CLASSIFICATION_TYPE":"U","PERIOD":"95.592","TLE_LINE2":"2 46056  53.0534 167.2896 0001115  86.0356 274.0761 15.06403794138129"},{"TLE_LINE1":"1 46058U 20055AH  23030.51471048  .00000273  00000-0  37203-4 0  9994","NORAD_CAT_ID":"46058","APOAPSIS":"547.977","RCS_SIZE":"LARGE","RA_OF_ASC_NODE":"168.1302","TIME_SYSTEM":"UTC","FILE":"3765705","EPHEMERIS_TYPE":"0","GP_ID":"224028838","ARG_OF_PERICENTER":"85.5991","REV_AT_EPOCH":"13755","MEAN_MOTION":"15.06398872","ELEMENT_SET_NO":"999","SITE":"AFETR","OBJECT_TYPE":"PAYLOAD","MEAN_ANOMALY":"274.5123","SEMIMAJOR_AXIS":"6925.352","INCLINATION":"53.0530","CENTER_NAME":"EARTH","PERIAPSIS":"546.457","LAUNCH_DATE":"2020-08-07","PERIOD":"95.592","TLE_LINE2":"2 46058  53.0530 168.1302 0001097  85.5991 274.5123 15.06398872137550","CLASSIFICATION_TYPE":"U","ECCENTRICITY":"0.00010970","DECAY_DATE":null,"OBJECT_ID":"2020-055AH","EPOCH":"2023-01-30T12:21:10.985472","REF_FRAME":"TEME","MEAN_MOTION_DOT":"0.00000273","BSTAR":"0.00003720300000","OBJECT_NAME":"STARLINK-1564","MEAN_MOTION_DDOT":"0.0000000000000","MEAN_ELEMENT_THEORY":"SGP4","COUNTRY_CODE":"US"},{"TLE_LINE1":"1 46059U 20055AJ  23030.12400234  .00000154  00000-0  29262-4 0  9995","TIME_SYSTEM":"UTC","RCS_SIZE":"LARGE","RA_OF_ASC_NODE":"169.8869","NORAD_CAT_ID":"46059","APOAPSIS":"548.264","FILE":"3765576","EPHEMERIS_TYPE":"0","MEAN_MOTION":"15.06395142","ARG_OF_PERICENTER":"74.1806","GP_ID":"223992771","REV_AT_EPOCH":"13798","ELEMENT_SET_NO":"999","OBJECT_TYPE":"PAYLOAD","SITE":"AFETR","MEAN_ANOMALY":"285.9347","SEMIMAJOR_AXIS":"6925.363","INCLINATION":"53.0529","CENTER_NAME":"EARTH","PERIAPSIS":"546.192","LAUNCH_DATE":"2020-08-07","PERIOD":"95.592","TLE_LINE2":"2 46059  53.0529 169.8869 0001496  74.1806 285.9347 15.06395142137985","CLASSIFICATION_TYPE":"U","ECCENTRICITY":"0.00014960","DECAY_DATE":null,"REF_FRAME":"TEME","OBJECT_ID":"2020-055AJ","EPOCH":"2023-01-30T02:58:33.802176","BSTAR":"0.00002926200000","MEAN_MOTION_DOT":"0.00000154","COUNTRY_CODE":"US","OBJECT_NAME":"STARLINK-1570","MEAN_MOTION_DDOT":"0.0000000000000","MEAN_ELEMENT_THEORY":"SGP4"},{"MEAN_MOTION_DDOT":"0.0000000000000","MEAN_ELEMENT_THEORY":"SGP4","OBJECT_NAME":"STARLINK-1572","COUNTRY_CODE":"US","MEAN_MOTION_DOT":"0.00000458","BSTAR":"0.00004965500000","EPOCH":"2023-01-30T12:26:29.510304","OBJECT_ID":"2020-055AK","REF_FRAME":"TEME","DECAY_DATE":null,"ECCENTRICITY":"0.00013040","CLASSIFICATION_TYPE":"U","TLE_LINE2":"2 46060  53.0536 168.1112 0001304  85.9826 274.1312 15.06397154138054","PERIOD":"95.592","PERIAPSIS":"546.319","LAUNCH_DATE":"2020-08-07","CENTER_NAME":"EARTH","INCLINATION":"53.0536","SEMIMAJOR_AXIS":"6925.357","MEAN_ANOMALY":"274.1312","SITE":"AFETR","OBJECT_TYPE":"PAYLOAD","ELEMENT_SET_NO":"999","ARG_OF_PERICENTER":"85.9826","GP_ID":"223992519","REV_AT_EPOCH":"13805","MEAN_MOTION":"15.06397154","EPHEMERIS_TYPE":"0","FILE":"3765576","APOAPSIS":"548.125","NORAD_CAT_ID":"46060","RCS_SIZE":"LARGE","RA_OF_ASC_NODE":"168.1112","TIME_SYSTEM":"UTC","TLE_LINE1":"1 46060U 20055AK  23030.51839711  .00000458  00000-0  49655-4 0  9991"},{"DECAY_DATE":null,"REF_FRAME":"TEME","OBJECT_ID":"2020-055AL","EPOCH":"2023-01-30T12:15:52.690464","COUNTRY_CODE":"US","MEAN_ELEMENT_THEORY":"SGP4","MEAN_MOTION_DDOT":"0.0000000000000","OBJECT_NAME":"STARLINK-1573","BSTAR":"-0.00001362600000","MEAN_MOTION_DOT":"-0.00000484","TLE_LINE2":"2 46061  53.0528 168.1555 0001185  77.1961 282.9161 15.06400951138089","PERIOD":"95.592","CLASSIFICATION_TYPE":"U","ECCENTRICITY":"0.00011850","SEMIMAJOR_AXIS":"6925.346","MEAN_ANOMALY":"282.9161","CENTER_NAME":"EARTH","PERIAPSIS":"546.390","LAUNCH_DATE":"2020-08-07","INCLINATION":"53.0528","EPHEMERIS_TYPE":"0","FILE":"3765576","MEAN_MOTION":"15.06400951","ARG_OF_PERICENTER":"77.1961","GP_ID":"223993769","REV_AT_EPOCH":"13808","TLE_LINE1":"1 46061U 20055AL  23030.51102651 -.00000484  00000-0 -13626-4 0  9998","RCS_SIZE":"LARGE","RA_OF_ASC_NODE":"168.1555","TIME_SYSTEM":"UTC","APOAPSIS":"548.031","NORAD_CAT_ID":"46061","ELEMENT_SET_NO":"999","OBJECT_TYPE":"PAYLOAD","SITE":"AFETR"},{"SEMIMAJOR_AXIS":"6925.371","MEAN_ANOMALY":"264.5221","PERIAPSIS":"546.452","LAUNCH_DATE":"2020-08-07","CENTER_NAME":"EARTH","INCLINATION":"53.0568","GP_ID":"223993509","ARG_OF_PERICENTER":"95.5897","REV_AT_EPOCH":"13798","MEAN_MOTION":"15.06392806","FILE":"3765576","EPHEMERIS_TYPE":"0","NORAD_CAT_ID":"46062","APOAPSIS":"548.020","TIME_SYSTEM":"UTC","RCS_SIZE":"LARGE","RA_OF_ASC_NODE":"170.0720","TLE_LINE1":"1 46062U 20055AM  23030.07977435  .00000637  00000-0  61671-4 0  9991","SITE":"AFETR","OBJECT_TYPE":"PAYLOAD","ELEMENT_SET_NO":"999","EPOCH":"2023-01-30T01:54:52.503840","OBJECT_ID":"2020-055AM","REF_FRAME":"TEME","DECAY_DATE":null,"MEAN_MOTION_DDOT":"0.0000000000000","MEAN_ELEMENT_THEORY":"SGP4","OBJECT_NAME":"STARLINK-1574","COUNTRY_CODE":"US","MEAN_MOTION_DOT":"0.00000637","BSTAR":"0.00006167100000","TLE_LINE2":"2 46062  53.0568 170.0720 0001132  95.5897 264.5221 15.06392806137984","PERIOD":"95.593","ECCENTRICITY":"0.00011320","CLASSIFICATION_TYPE":"U"},{"TLE_LINE2":"2 46063  53.0539 168.3121 0001238  81.5236 278.5893 15.06390180137542","PERIOD":"95.593","CLASSIFICATION_TYPE":"U","ECCENTRICITY":"0.00012380","DECAY_DATE":null,"OBJECT_ID":"2020-055AN","EPOCH":"2023-01-30T11:22:48.515232","REF_FRAME":"TEME","MEAN_MOTION_DDOT":"0.0000000000000","OBJECT_NAME":"STARLINK-1577","MEAN_ELEMENT_THEORY":"SGP4","COUNTRY_CODE":"US","MEAN_MOTION_DOT":"0.00000283","BSTAR":"0.00003793000000","FILE":"3765701","EPHEMERIS_TYPE":"0","GP_ID":"224028282","REV_AT_EPOCH":"13754","ARG_OF_PERICENTER":"81.5236","MEAN_MOTION":"15.06390180","TLE_LINE1":"1 46063U 20055AN  23030.47417263  .00000283  00000-0  37930-4 0  9992","APOAPSIS":"548.101","NORAD_CAT_ID":"46063","RCS_SIZE":"LARGE","RA_OF_ASC_NODE":"168.3121","TIME_SYSTEM":"UTC","ELEMENT_SET_NO":"999","SITE":"AFETR","OBJECT_TYPE":"PAYLOAD","SEMIMAJOR_AXIS":"6925.379","MEAN_ANOMALY":"278.5893","CENTER_NAME":"EARTH","LAUNCH_DATE":"2020-08-07","PERIAPSIS":"546.386","INCLINATION":"53.0539"},{"OBJECT_TYPE":"PAYLOAD","SITE":"AFETR","ELEMENT_SET_NO":"999","RA_OF_ASC_NODE":"168.7634","RCS_SIZE":"LARGE","TIME_SYSTEM":"UTC","NORAD_CAT_ID":"46064","APOAPSIS":"547.830","TLE_LINE1":"1 46064U 20055AP  23030.37464848  .00001046  00000-0  89098-4 0  9993","MEAN_MOTION":"15.06396011","REV_AT_EPOCH":"13806","GP_ID":"223993020","ARG_OF_PERICENTER":"96.8303","EPHEMERIS_TYPE":"0","FILE":"3765576","INCLINATION":"53.0552","LAUNCH_DATE":"2020-08-07","PERIAPSIS":"546.622","CENTER_NAME":"EARTH","MEAN_ANOMALY":"263.2785","SEMIMAJOR_AXIS":"6925.361","ECCENTRICITY":"0.00008720","CLASSIFICATION_TYPE":"U","PERIOD":"95.592","TLE_LINE2":"2 46064  53.0552 168.7634 0000872  96.8303 263.2785 15.06396011138066","BSTAR":"0.00008909800000","MEAN_MOTION_DOT":"0.00001046","COUNTRY_CODE":"US","OBJECT_NAME":"STARLINK-1583","MEAN_MOTION_DDOT":"0.0000000000000","MEAN_ELEMENT_THEORY":"SGP4","REF_FRAME":"TEME","EPOCH":"2023-01-30T08:59:29.628672","OBJECT_ID":"2020-055AP","DECAY_DATE":null},{"GP_ID":"223993270","ARG_OF_PERICENTER":"82.6246","REV_AT_EPOCH":"13834","MEAN_MOTION":"15.06396223","EPHEMERIS_TYPE":"0","FILE":"3765576","APOAPSIS":"547.947","NORAD_CAT_ID":"46065","RA_OF_ASC_NODE":"148.1936","RCS_SIZE":"LARGE","TIME_SYSTEM":"UTC","TLE_LINE1":"1 46065U 20055AQ  23030.50087626  .00001317  00000-0  10726-3 0  9996","SITE":"AFETR","OBJECT_TYPE":"PAYLOAD","ELEMENT_SET_NO":"999","SEMIMAJOR_AXIS":"6925.360","MEAN_ANOMALY":"277.4861","LAUNCH_DATE":"2020-08-07","PERIAPSIS":"546.504","CENTER_NAME":"EARTH","INCLINATION":"53.0522","TLE_LINE2":"2 46065  53.0522 148.1936 0001042  82.6246 277.4861 15.06396223138348","PERIOD":"95.592","ECCENTRICITY":"0.00010420","CLASSIFICATION_TYPE":"U","OBJECT_ID":"2020-055AQ","EPOCH":"2023-01-30T12:01:15.708864","REF_FRAME":"TEME","DECAY_DATE":null,"MEAN_MOTION_DDOT":"0.0000000000000","MEAN_ELEMENT_THEORY":"SGP4","OBJECT_NAME":"STARLINK-1515","COUNTRY_CODE":"US","MEAN_MOTION_DOT":"0.00001317","BSTAR":"0.00010726000000"}];
